OBJECT_NAME,OBJECT_ID,EPOCH,MEAN_MOTION,ECCENTRICITY,INCLINATION,RA_OF_ASC_NODE,ARG_OF_PERICENTER,MEAN_ANOMALY,EPHEMERIS_TYPE,CLASSIFICATION_TYPE,NORAD_CAT_ID,ELEMENT_SET_NO,REV_AT_EPOCH,BSTAR,MEAN_MOTION_DOT,MEAN_MOTION_DDOT,RMS,DATA_SOURCE
STARLINK-32017,2024-111S,2025-10-07T19:26:41.999971,15.30196744,0.0001224,53.1598,65.8055,88.1622,6.5421,0,C,60032,280,1,-0.00036187,-0.00010735,0,0.339,SpaceX-E
STARLINK-32005,2024-111U,2025-10-07T19:31:42.000038,15.30196214,0.0001147,53.1586,65.6518,91.4807,80.5576,0,C,60034,280,1,-0.00044065,-0.00013071,0,0.299,SpaceX-E
STARLINK-31981,2024-111V,2025-10-07T19:32:42.000000,15.30146629,0.0001114,53.16,65.8538,75.4878,355.7238,0,C,60035,280,1,0.00079635,0.00023612,0,0.286,SpaceX-E
STARLINK-31985,2024-111W,2025-10-07T19:32:42.000000,15.30183594,0.0001183,53.1601,65.819,77.1004,11.5063,0,C,60036,280,1,7.1819e-05,2.1305e-05,0,0.286,SpaceX-E
STARLINK-31918,2024-111X,2025-10-07T19:31:42.000038,15.30208468,8.36e-05,53.1583,65.5007,92.0089,155.619,0,C,60037,280,1,-0.00056306,-0.00016706,0,0.369,SpaceX-E
STARLINK-11129 [DTC],2024-112A,2025-10-07T18:43:41.999981,15.69709078,0.0001081,53.1571,300.3892,86.9189,155.0683,0,C,60038,280,1,-0.00010615,-0.0001288,0,0.218,SpaceX-E
STARLINK-11140 [DTC],2024-112B,2025-10-07T18:38:42.000000,15.69707752,0.0001405,53.1569,300.3498,93.0109,157.086,0,C,60039,280,1,-0.00010906,-0.00013232,0,0.35,SpaceX-E
STARLINK-11122 [DTC],2024-112C,2025-10-07T18:25:41.999981,15.69722265,0.0001217,53.1568,300.3379,90.334,136.4452,0,C,60040,280,1,-0.00021627,-0.0002624,0,0.449,SpaceX-E
STARLINK-11149 [DTC],2024-112D,2025-10-07T18:44:42.000029,15.69709071,0.0001198,53.1567,300.2161,81.1221,248.0042,0,C,60041,280,1,-0.00011991,-0.00014548,0,0.247,SpaceX-E
STARLINK-11120 [DTC],2024-112E,2025-10-07T18:49:42.000010,15.69673401,0.0001109,53.1568,300.1418,87.604,288.9494,0,C,60042,280,1,4.282e-05,5.1916e-05,0,0.313,SpaceX-E
STARLINK-11086 [DTC],2024-112F,2025-10-07T18:46:42.000038,15.69721369,0.0001205,53.1567,300.0951,85.8751,306.5677,0,C,60043,280,1,-0.00020198,-0.00024508,0,0.286,SpaceX-E
STARLINK-11148 [DTC],2024-112G,2025-10-07T18:38:42.000000,15.69709949,0.0001266,53.1567,300.0656,87.6679,301.1098,0,C,60044,280,1,-0.00011082,-0.00013446,0,0.282,SpaceX-E
STARLINK-11116 [DTC],2024-112H,2025-10-07T18:47:42.000000,15.69701513,0.0001089,53.1567,299.9781,81.648,10.2107,0,C,60045,280,1,-4.6099e-05,-5.5932e-05,0,0.422,SpaceX-E
STARLINK-11155 [DTC],2024-112J,2025-10-07T18:39:41.999962,15.69719021,0.0001139,53.1565,299.949,90.2678,357.9045,0,C,60046,280,1,-0.00018213,-0.00022099,0,0.399,SpaceX-E
STARLINK-11163 [DTC],2024-112K,2025-10-07T18:46:42.000038,15.69713324,0.0001109,53.1565,299.8685,91.278,52.1273,0,C,60047,280,1,-0.00016515,-0.00020035,0,0.388,SpaceX-E
STARLINK-11135 [DTC],2024-112L,2025-10-07T18:44:42.000029,15.69704992,0.000116,53.157,299.7212,88.5223,130.2318,0,C,60048,280,1,-9.9961e-05,-0.00012127,0,0.365,SpaceX-E
STARLINK-11151 [DTC],2024-112M,2025-10-07T18:37:42.000038,15.69720701,0.0001826,53.1566,299.8419,87.8301,47.9664,0,C,60049,280,1,-0.00021388,-0.00025951,0,0.369,SpaceX-E
STARLINK-11137 [DTC],2024-112N,2025-10-07T18:40:42.000010,15.69719102,0.0001163,53.1567,299.7744,85.2352,90.0742,0,C,60050,280,1,-0.00018454,-0.00022391,0,0.245,SpaceX-E
STARLINK-31811,2024-112P,2025-10-07T19:26:41.999971,15.30200187,0.0001207,53.1595,68.447,86.6225,329.8804,0,C,60051,280,1,-0.0003513,-0.00010422,0,0.33,SpaceX-E
STARLINK-31775,2024-112Q,2025-10-07T19:30:41.999990,15.30174557,0.0001149,53.1585,68.3345,91.6172,32.5763,0,C,60052,280,1,5.9467e-05,1.7636e-05,0,0.308,SpaceX-E
STARLINK-31793,2024-112R,2025-10-07T19:34:42.000010,15.30190122,0.000127,53.1593,68.3921,85.7933,18.7765,0,C,60053,280,1,-0.00012125,-3.5971e-05,0,0.268,SpaceX-E
STARLINK-31735,2024-112S,2025-10-07T19:23:42.000000,15.30189376,0.000124,53.1582,68.2864,88.2284,44.038,0,C,60054,280,1,-5.2234e-05,-1.5496e-05,0,0.305,SpaceX-E
STARLINK-31788,2024-112T,2025-10-07T19:25:42.000010,15.30201255,0.0001233,53.1583,68.2444,79.9635,77.3945,0,C,60055,280,1,-0.00037592,-0.00011153,0,0.316,SpaceX-E
STARLINK-31825,2024-112U,2025-10-07T19:25:42.000010,15.3019519,0.0001171,53.1583,68.3176,87.2651,35.2037,0,C,60056,280,1,-0.00027964,-8.2959e-05,0,0.29,SpaceX-E
STARLINK-31437,2024-112V,2025-10-07T19:03:41.999990,15.30207857,0.0001225,53.1588,68.456,88.7752,274.5627,0,C,60057,280,1,-0.00040266,-0.00011949,0,0.331,SpaceX-E
STARLINK-11181 [DTC],2024-113A,2025-10-07T18:37:42.000038,15.69700835,0.0001147,53.1575,225.1548,81.2658,241.2175,0,C,60059,280,1,-5.4286e-05,-6.5861e-05,0,0.336,SpaceX-E
STARLINK-11176 [DTC],2024-113B,2025-10-07T18:41:41.999971,15.69707018,0.0001107,53.1573,225.0839,90.4101,275.5106,0,C,60060,280,1,-9.2567e-05,-0.00011231,0,0.431,SpaceX-E
STARLINK-11167 [DTC],2024-113C,2025-10-07T18:43:41.999981,15.69698003,0.0001016,53.1571,225.02,85.1994,316.3163,0,C,60061,280,1,-2.4959e-05,-3.0282e-05,0,0.283,SpaceX-E
STARLINK-11166 [DTC],2024-113D,2025-10-07T18:46:42.000038,15.69702939,0.0001089,53.1572,224.9526,89.8438,351.1823,0,C,60062,280,1,-5.0742e-05,-6.1568e-05,0,0.327,SpaceX-E
STARLINK-11165 [DTC],2024-113E,2025-10-07T18:41:41.999971,15.6970113,0.0001158,53.1573,224.9131,80.9368,8.2009,0,C,60063,280,1,-6.0893e-05,-7.3875e-05,0,0.311,SpaceX-E
STARLINK-11169 [DTC],2024-113F,2025-10-07T18:40:42.000010,15.69699644,0.0001132,53.1574,224.8598,85.0604,27.8877,0,C,60064,280,1,-3.295e-05,-3.9978e-05,0,0.397,SpaceX-E
STARLINK-11102 [DTC],2024-113G,2025-10-07T18:47:42.000000,15.69706482,0.0001149,53.1573,224.7791,89.3273,78.8421,0,C,60065,280,1,-0.00010191,-0.00012364,0,0.426,SpaceX-E
STARLINK-11141 [DTC],2024-113H,2025-10-07T18:38:42.000000,15.69707752,0.0001066,53.1571,224.7528,81.4893,79.0782,0,C,60066,280,1,-0.00011642,-0.00014124,0,0.45,SpaceX-E
STARLINK-11153 [DTC],2024-113J,2025-10-07T18:38:42.000000,15.69710322,0.0001119,53.1571,225.4309,85.2202,102.5026,0,C,60067,280,1,-0.00012744,-0.00015462,0,0.489,SpaceX-E
STARLINK-11170 [DTC],2024-113K,2025-10-07T18:43:41.999981,15.69705729,0.0001101,53.1573,225.3563,85.3718,149.7277,0,C,60068,280,1,-9.9109e-05,-0.00012024,0,0.503,SpaceX-E
STARLINK-11171 [DTC],2024-113L,2025-10-07T18:42:42.000019,15.69708664,0.0001056,53.1576,225.303,85.101,173.8044,0,C,60069,280,1,-0.00011662,-0.00014149,0,0.519,SpaceX-E
STARLINK-11186 [DTC],2024-113M,2025-10-07T18:53:42.000029,15.69704578,0.0001116,53.1579,225.2085,96.5208,233.3147,0,C,60070,280,1,-8.2929e-05,-0.00010061,0,0.438,SpaceX-E
STARLINK-11184 [DTC],2024-113N,2025-10-07T18:44:42.000029,15.69698778,0.0001095,53.1577,225.2205,83.4563,238.7511,0,C,60071,280,1,-4.9448e-05,-5.9987e-05,0,0.43,SpaceX-E
STARLINK-32032,2024-113U,2025-10-07T19:29:42.000029,15.30201648,0.0001329,53.16,348.9334,93.2993,54.5248,0,C,60077,280,1,-0.00034752,-0.00010311,0,0.447,SpaceX-E
STARLINK-31441,2024-117A,2025-10-07T18:57:41.999962,15.30158007,9.66e-05,53.1608,27.2511,95.4396,60.3079,0,C,60091,280,1,0.00035106,0.00010408,0,0.3,SpaceX-E
STARLINK-32044,2024-117B,2025-10-07T19:30:41.999990,15.30213457,0.00011,53.16,26.9253,85.1462,307.3632,0,C,60092,280,1,-0.00087898,-0.00026076,0,0.5,SpaceX-E
STARLINK-31239,2024-117C,2025-10-07T19:05:42.000000,15.30205255,0.0001257,53.159,27.5834,78.4813,287.4671,0,C,60093,280,1,-0.00024881,-7.3837e-05,0,0.442,SpaceX-E
STARLINK-32007,2024-117D,2025-10-07T19:26:41.999971,15.30204319,0.0001348,53.1599,27.3651,94.5736,67.4106,0,C,60094,280,1,-0.00057702,-0.00017118,0,0.445,SpaceX-E
STARLINK-32028,2024-117E,2025-10-07T19:25:42.000010,15.30207728,0.0001556,53.1607,27.2649,87.9638,122.5557,0,C,60095,280,1,-0.00083575,-0.00024791,0,0.432,SpaceX-E
STARLINK-32016,2024-117F,2025-10-07T19:28:41.999981,15.30219368,0.000135,53.1593,27.4623,86.3125,30.9723,0,C,60096,280,1,-0.001043,-0.00030943,0,0.564,SpaceX-E
STARLINK-32003,2024-117G,2025-10-07T19:32:42.000000,15.30200381,0.0001231,53.1607,27.092,88.6602,224.1541,0,C,60097,280,1,0.00050483,0.00014989,0,0.308,SpaceX-E
STARLINK-32026,2024-117H,2025-10-07T19:21:41.999990,15.3020084,0.0001283,53.1607,27.2308,89.0719,129.4049,0,C,60098,280,1,-0.00061781,-0.00018326,0,0.403,SpaceX-E
STARLINK-31732,2024-117J,2025-10-07T19:25:42.000010,15.30227776,0.0001233,53.1593,26.8592,85.9626,328.1248,0,C,60099,280,1,-0.0014161,-0.00042009,0,0.59,SpaceX-E
STARLINK-31996,2024-117K,2025-10-07T19:21:41.999990,15.30213766,0.0001186,53.1606,27.0219,88.8173,234.3347,0,C,60100,280,1,-0.0007767,-0.00023044,0,0.476,SpaceX-E
STARLINK-31999,2024-117L,2025-10-07T19:26:41.999971,15.30213355,0.0001223,53.1591,27.5026,84.2626,7.9242,0,C,60101,280,1,-0.00089977,-0.00026693,0,0.536,SpaceX-E
STARLINK-31954,2024-117M,2025-10-07T19:26:41.999971,15.30233269,0.0001312,53.1597,27.4329,96.1186,30.9577,0,C,60102,280,1,-0.0014646,-0.00043453,0,0.612,SpaceX-E
STARLINK-32013,2024-117N,2025-10-07T19:21:41.999990,15.30266374,0.0001223,53.1597,27.414,89.8122,35.5143,0,C,60103,280,1,-0.0020212,-0.00059998,0,0.703,SpaceX-E
STARLINK-32009,2024-117P,2025-10-07T19:30:41.999990,15.30170379,0.0001262,53.159,27.4976,93.7261,356.3963,0,C,60104,280,1,8.9371e-05,2.6501e-05,0,0.4,SpaceX-E
STARLINK-32018,2024-117Q,2025-10-07T19:23:42.000000,15.30200542,0.0001384,53.1603,27.3029,92.6242,92.7712,0,C,60105,280,1,-0.00037951,-0.0001126,0,0.428,SpaceX-E
STARLINK-32045,2024-117R,2025-10-07T19:21:41.999990,15.3020654,0.0001617,53.1601,27.3445,96.3806,63.9189,0,C,60106,280,1,-0.00067889,-0.0002014,0,0.463,SpaceX-E
STARLINK-32035,2024-117S,2025-10-07T19:27:42.000019,15.30256943,0.0001433,53.1606,27.1761,95.7588,163.0621,0,C,60107,280,1,-0.0018532,-0.00055003,0,0.667,SpaceX-E
STARLINK-32042,2024-117T,2025-10-07T19:22:42.000038,15.30200805,0.0001321,53.1608,27.0863,91.1656,200.9163,0,C,60108,280,1,-0.00038199,-0.00011333,0,0.464,SpaceX-E
STARLINK-32040,2024-117U,2025-10-07T19:23:42.000000,15.30221247,0.000119,53.161,26.8922,77.8194,316.971,0,C,60109,280,1,-0.0011648,-0.00034556,0,0.519,SpaceX-E
STARLINK-32001,2024-117V,2025-10-07T19:21:41.999990,15.30218907,0.0001238,53.1604,26.986,81.544,259.057,0,C,60110,280,1,-0.001008,-0.00029904,0,0.498,SpaceX-E
